#dP2023 12  1  0  0  0.00000000     288   u+U IGS20 FIT  GFZ                    
## 2290 432000.00000000   300.00000000 60279 0.0000000000000                    
+  126   C01C02C03C04C05C06C07C08C09C10C11C12C13C14C16C19C20                    
+        C21C22C23C24C25C26C27C28C29C30C32C33C34C35C36C37C38                    
+        C39C40C41C42C43C44C45C46C59C60C62E02E03E04E05E07E08                    
+        E09E10E11E12E13E15E18E19E21E24E25E26E27E30E31E33E34                    
+        E36G01G02G03G04G05G06G07G08G09G10G11G12G13G14G15G16                    
+        G17G18G19G20G21G22G23G24G25G26G27G29G30G31G32J02J03                    
+        J04J07R01R02R03R04R05R07R08R09R11R12R13R14R15R16R17                    
+        R18R19R20R21R22R24R26 00 00 00 00 00 00 00 00 00 00                    
++        10 10 10 10 10 10  7 10 10  9  8  6  9  5  9  5  6                    
++         7  7  5  5  5  6  6  6  6  6  7  8  5  6  6  5 10                    
++        10 10  7 10  5  7  5  8 10 10 10  5  8  6  5  5  7                    
++         5  6  5  6  5  6  5  6  6  5  6  7  6  5  5  6  5                    
++         5  6  6  5  5  5  5  5  6  5  5  6  6  5  6  7  5                    
++         6  6  6  5  5  6  6  6  5  6  6  8  5  5  6 10 10                    
++        10 10  7  5  6  5  5  5  5  6  7  8 10  5  5  7  6                    
++         6  5  7  6  7  7  7  0  0  0  0  0  0  0  0  0  0                    
%c M  cc GPS ccc cccc cccc cccc cccc ccccc ccccc ccccc ccccc                    
%c cc cc ccc ccc cccc cccc cccc cccc ccccc ccccc ccccc ccccc                    
%f  1.2500000  1.025000000  0.00000000000  0.000000000000000                    
%f  0.0000000  0.000000000  0.00000000000  0.000000000000000                    
%i    0    0    0    0      0      0      0      0         0                    
%i    0    0    0    0      0      0      0      0         0                    
/* PCV:IGS20_2290 OL/AL:FES2014b NONE     YN CLK:CoN ORB:CoN                    
/*     GeoForschungsZentrum Potsdam                                             
/*                                                                              
/*                                                                              
*  2023 12  1  8 15  0.00000000                                                 
PC01 -34373.580781  24400.306193  -1069.594180    880.199937                    
PC02   4506.242840  41921.480217   -426.343611    211.556298                    
PC03 -14735.180115  39484.969259   -903.947946   -180.812665                    
PC04 -39635.342340  14384.716404   -950.132158    171.674753                    
PC05  21870.511896  36008.959895    -80.214074    -13.632407                    
PC06 -17745.290557  27706.549451  26230.154184     48.816138                    
PC07  -7705.830721  40529.114489   9288.764875   -404.406498                    
PC08    -10.232287  23632.587887 -34878.563533    208.091254                    
PC09  -6774.453298  26788.297645  32114.260769   -159.638161                    
PC10  -1166.239154  42414.931306   1998.117308    -36.927753                    
PC11 -20106.358468   -753.700260  19422.343971    283.726657                    
PC12  -4600.794430 -15629.740673  22702.160313    840.424741                    
PC13   5620.156979  26824.129330 -31791.192327    390.016359                    
PC14 -15910.183998 -10261.569476 -20476.184999    892.620360                    
PC16 -20363.572483  27283.038505  24914.387591   -203.186481                    
PC19  15722.759363   -633.768059  23065.472444   -959.682711                    
PC20  14021.397714  18157.591096  15909.691872     68.756380                    
PC21  -3602.899785 -27619.184131   1577.561213   -969.385382                    
PC22   8491.987061 -20139.347087  17332.110307   -203.867964                    
PC23 -15832.128322  10054.868804  20664.614068   -811.365866                    
PC24 -21788.856740 -14980.890075  -8987.193044    649.566932                    
PC25 -26364.041081  -2279.342829   8883.322065    268.006345                    
PC26  -5644.681877 -17769.265915 -20793.913196   -213.909792                    
PC27  -3671.021009  20115.074963 -19001.249045    235.890969                    
PC28 -18246.843321  20251.518561  -5973.302765    178.261977                    
PC29  23236.798353  -8319.359797 -13023.300253    208.630225                    
PC30  13507.474798   9241.969473 -22606.889963     -9.440120                    
PC32   3765.597875  27603.162959  -1669.858544   -538.852416                    
PC33 -15752.292711    631.799784 -23027.929226   -942.765488                    
PC34 -14680.556456  -8034.408101  22321.537693    315.257914                    
PC35  17431.360881 -20967.276646   6018.853972    490.733928                    
PC36  26453.849235   3521.448407  -8117.445277   -111.371947                    
PC37   4453.621729  17783.370153  21036.351728   -906.930578                    
PC38  -8918.058366  21204.993011 -35291.537524    121.214391                    
PC39 -22985.624156  28105.771968  21275.073976     -5.871792                    
PC40 -13070.296947  38305.717204  12322.144258    -46.091930                    
PC41  -8843.856601  19574.521518 -17769.193383   -872.097582                    
PC42 -13533.531352 -19439.554597 -14701.318215   -488.849340                    
PC43 -23137.521025   7450.052009  13686.159911     50.505716                    
PC44   3051.408785 -20414.721583  18784.067424    309.359755                    
PC45  15273.204145 -10284.912481 -20967.997321    -51.062262                    
PC46  22437.158191  14483.782979   8007.237413   -104.016303                    
PC59 -32330.299156  27066.211869   -720.295030     -0.855865                    
PC60   7287.679898  41488.708881  -1496.721513     -0.387155                    
PC62 -39582.883788  14473.091688   1758.950984      0.100941                    
PE02  -6054.659011  18049.466287  22655.461240     82.957392                    
PE03 -13438.773640  26220.368203  -2888.267085    -77.120430                    
PE04   -525.251351 -25498.054194 -15029.048587   -269.921441                    
PE05 -19476.621838  11726.167421 -18958.284664   4696.192328                    
PE07  13947.498788  10197.113579  24032.370564    -90.688093                    
PE08      8.733777  25730.315044  14631.200372   -185.358741                    
PE09 -13762.069442 -10259.391816 -24119.440136   -247.107824                    
PE10 -16033.600005 -12130.991893  21728.727749   -582.984024                    
PE11 -24805.464890  -6668.245975  14702.073082   3243.363890                    
PE12  -5753.222928 -15369.699913  24637.454592   -799.944259                    
PE13  24345.066674   7008.683105 -15299.801275    -19.627447                    
PE15   5183.337310  15387.837105 -24736.073590    -72.390523                    
PE18 -12779.534080  -9580.898823  18677.975242     44.131270                    
PE19  14802.363569 -25107.281676   5187.588902  -1104.783704                    
PE21  18977.294131   -638.261312 -22707.438065   -566.729091                    
PE24 -21333.471142 -18429.682372   9052.362213   -461.512456                    
PE25 -19158.740599    232.633613  22568.608645     -2.614350                    
PE26  28810.015027  -5754.777699   3595.302140    296.779361                    
PE27  21486.382695  17980.589114  -9527.238118   -213.262474                    
PE30  10963.058238  25832.332669   9377.886864   -706.075452                    
PE31 -11316.922003 -25794.619663  -9106.201092    -10.924333                    
PE33  17281.512747 -14466.687692  19193.131338      3.388439                    
PE34 -16713.139765  14663.711323 -19543.729221    -80.921965                    
PE36 -28970.130550   5320.881174  -2911.419904   -151.554441                    
PG01   7106.446848  13781.620113 -21964.466599    163.468206                    
PG02     91.153048  15019.104568 -21390.023551   -521.666312                    
PG03  10844.413136  23130.729356  -7612.172617     22.984137                    
PG04   1996.333830  21291.100224  15675.201383    227.651679                    
PG05   -693.529817 -19772.626826  17498.530186   -152.443016                    
PG06  25161.406835  -6498.228508   5818.183058    491.018263                    
PG07  22427.930241   6984.906456  13320.508944     -0.597089                    
PG08  -3466.610248  24789.241745  -8312.673896   -154.758040                    
PG09  10956.657548  12111.975316  20847.162514     13.295380                    
PG10 -18502.765886  -4055.055423 -18563.044563    -63.543274                    
PG11  17904.548202 -11978.212763  15525.425529   -482.825309                    
PG12  -8305.286341 -23877.999475  -8545.192313   -452.785677                    
PG13  13307.553232 -22843.043824   -712.074148    601.045967                    
PG14  19622.123318   7464.920747 -16350.067927    258.524941                    
PG15    137.153718 -25188.310722  -8553.211440    102.518843                    
PG16  -6599.406127  15681.257376  19952.308816   -412.369361                    
PG17  16799.326931  -3040.026608 -19948.489198    722.632199                    
PG18 -23303.414682  -5639.564359  11639.698616   -494.306548                    
PG19  18431.169356 -11054.902812 -15562.901158    406.381372                    
PG20  10103.730318 -11689.210547  21657.771437    398.884307                    
PG21  -3062.742496  15420.260606 -20744.206329    142.804311                    
PG22  16707.451345    460.587264 -20130.842261     74.018637                    
PG23 -19955.217397 -14894.527759  -9490.444788    108.219542                    
PG24  -1619.496843 -15962.508364 -21545.893168   -383.670624                    
PG25 -17372.716913 -20142.902537   2082.021356    479.694262                    
PG26 -13620.409984   8235.367931  21150.876697    212.710291                    
PG27 -12791.522301  22560.606288   4301.404257    -77.263621                    
PG29  -9129.162610 -13344.949037  21007.232819   -610.034210                    
PG30  26480.351142   -344.193857   3560.656334   -462.396151                    
PG31 -22113.901289   9987.204125  11066.306847   -226.224021                    
PG32 -17183.351126   7353.451900 -18602.447898   -591.780659                    
PJ02 -25924.134048  23054.415347  29115.164237     -0.367043                    
PJ03 -34640.359428  20638.955362  -7480.237939    -10.219812                    
PJ04 -19573.881769  29792.172047 -17500.439568     73.301782                    
PJ07 -25409.625250  33640.988022     32.475898     -0.013084                    
PR01   9792.068632  12131.293440  20188.193776     71.101938                    
PR02  10506.291376  -7201.575696  22152.957238    -22.317870                    
PR03   5538.783710 -22308.376374  11173.668476     90.066125                    
PR04  -2096.273225 -24790.446518  -5657.693699    213.366275                    
PR05  -8683.404810 -14031.844371 -19456.985518    123.117611                    
PR07  -5166.540142  22703.359360 -10315.474154     70.351390                    
PR08   2462.148955  24666.951903   5979.973121    -73.491225                    
PR09 -19623.410003  -1707.356246  16175.921086    156.258907                    
PR11  10041.121243  15448.787875  17655.065417   -217.365448                    
PR12  21934.703851  13000.591361    278.742258     34.006113                    
PR13  20621.599114   3711.671989 -14561.022051    -41.860476                    
PR14   5939.544419  -9430.434873 -22936.435337     25.670098                    
PR15 -11128.626973 -15806.145882 -16626.187247     84.341480                    
PR16 -21939.687939 -12968.216237   -548.104365     21.133135                    
PR17  16547.011991 -15335.916014  11876.159717     39.669818                    
PR18   2000.601298 -12450.774534  22203.831060    114.658611                    
PR19 -12399.798236  -4659.798704  21807.888373   -256.645350                    
PR20 -23200.693674   8323.725994   6509.648592   -104.437161                    
PR21 -16309.212328  15221.077904 -12388.342469    -57.572038                    
PR22  -1129.434087  12327.674162 -22268.976866     96.140143                    
PR24  22946.102216  -9467.317704  -5808.679619    -34.228306                    
PR26   2275.629209  24870.099316   5254.303628    -14.300983                    
EOF                                     
